[{"OBJECT_NAME":"STARLINK-34460","OBJECT_ID":"2025-236P","EPOCH":"2026-03-09T09:26:12.759072","MEAN_MOTION":15.30192746,"ECCENTRICITY":0.00013666,"INCLINATION":53.1578,"RA_OF_ASC_NODE":104.9334,"ARG_OF_PERICENTER":59.2277,"MEAN_ANOMALY":300.8858,"EPHEMERIS_TYPE":0,"CLASSIFICATION_TYPE":"U","NORAD_CAT_ID":66099,"ELEMENT_SET_NO":999,"REV_AT_EPOCH":2290,"BSTAR":0.00045447684,"MEAN_MOTION_DOT":0.00013122,"MEAN_MOTION_DDOT":0},{"OBJECT_NAME":"CP8 (IPEX)","OBJECT_ID":"2013-072K","EPOCH":"2026-03-09T13:09:38.394720","MEAN_MOTION":15.06461805,"ECCENTRICITY":0.0159394,"INCLINATION":120.4656,"RA_OF_ASC_NODE":280.3913,"ARG_OF_PERICENTER":252.2911,"MEAN_ANOMALY":106.0698,"EPHEMERIS_TYPE":0,"CLASSIFICATION_TYPE":"U","NORAD_CAT_ID":39471,"ELEMENT_SET_NO":999,"REV_AT_EPOCH":10021,"BSTAR":0.00057825,"MEAN_MOTION_DOT":0.0001114,"MEAN_MOTION_DDOT":0}]
